METEOSAT-9 (MSG-2)      
1 28912U 05049B   26174.82296979  .00000123  00000+0  00000+0 0  9996
2 28912   9.3767  54.1047 0001969 353.0325 206.8037  1.00276020  7060
METOP-B                 
1 38771U 12049A   26174.94716754  .00000070  00000+0  51931-4 0  9994
2 38771  98.6501 226.3115 0001803 359.9712   0.1466 14.21440920714225
METEOSAT-11 (MSG-4)     
1 40732U 15034A   26174.88714801  .00000067  00000+0  00000+0 0  9997
2 40732   3.2174  71.0663 0002297 347.2449 182.6031  1.00265159  7288
METOP-C                 
1 43689U 18087A   26174.89562119  .00000066  00000+0  49770-4 0  9997
2 43689  98.6641 234.3766 0001966 121.0401 239.0970 14.21513654395782
NEMO-HD                 
1 46277U 20061F   26174.93187553  .00009362  00000+0  20237-3 0  9992
2 46277  97.1920 236.8169 0002000  75.7237 284.4235 15.44711040323029
METEOSAT-12 (MTG-I1)    
1 54743U 22170C   26174.88524134 -.00000001  00000+0  00000+0 0  9990
2 54743   0.7460  24.1139 0003534  71.0503 135.2046  1.00274676 13045
MTG-S1                  
1 64723U 25143A   26174.88506800  .00000018  00000+0  00000+0 0  9999
2 64723   0.5973 340.4473 0000634 290.5343 318.8145  1.00400710  3480
MICROCARB               
1 64899U 25156A   26174.94563293  .00000400  00000+0  70901-4 0  9990
2 64899  97.9873 251.9645 0015121 245.8477 114.1150 14.72462875 48966
NISAR                   
1 65053U 25163A   26174.96270932  .00000163  00000+0  62389-4 0  9995
2 65053  98.4057   2.5286 0001216  89.8549 270.2780 14.42505131 47362
METOP-SGA1              
1 65159U 25172A   26174.90493228  .00000019  00000+0  29390-4 0  9996
2 65159  98.6643 234.4895 0008256  33.5615 326.6083 14.19815962 44746
