{
 "generated_at": "2026-06-24T08:22:35Z",
 "sources": [
  {
   "name": "CelesTrak",
   "url": "https://celestrak.org/NORAD/elements/",
   "license": "frei verfügbar; Attribution. Ursprünglich USSPACECOM/Space-Track."
  },
  {
   "name": "GCAT (J. McDowell, planet4589.org)",
   "url": "https://planet4589.org/space/gcat/",
   "license": "CC-BY 4.0"
  }
 ],
 "satellites": [
  {
   "norad": 40732,
   "name": "METEOSAT-11 (MSG-4)",
   "intl": "2015-034A",
   "group": "weather",
   "gcat": {
    "class": "C",
    "category": "MET",
    "owner": "EUMET",
    "state": "I-EUM"
   },
   "omm": {
    "OBJECT_NAME": "METEOSAT-11 (MSG-4)",
    "OBJECT_ID": "2015-034A",
    "EPOCH": "2026-06-23T21:17:29.588064",
    "MEAN_MOTION": 1.00265159,
    "ECCENTRICITY": 0.00022977,
    "INCLINATION": 3.2174,
    "RA_OF_ASC_NODE": 71.0663,
    "ARG_OF_PERICENTER": 347.2449,
    "MEAN_ANOMALY": 182.6031,
    "EPHEMERIS_TYPE": 0,
    "CLASSIFICATION_TYPE": "U",
    "NORAD_CAT_ID": 40732,
    "ELEMENT_SET_NO": 999,
    "REV_AT_EPOCH": 728,
    "BSTAR": 0,
    "MEAN_MOTION_DOT": 6.7e-7,
    "MEAN_MOTION_DDOT": 0
   }
  },
  {
   "norad": 54743,
   "name": "METEOSAT-12 (MTG-I1)",
   "intl": "2022-170C",
   "group": "weather",
   "gcat": {
    "class": "C",
    "category": "MET",
    "owner": "EUMET",
    "state": "I-EUM"
   },
   "omm": {
    "OBJECT_NAME": "METEOSAT-12 (MTG-I1)",
    "OBJECT_ID": "2022-170C",
    "EPOCH": "2026-06-23T21:14:44.851776",
    "MEAN_MOTION": 1.00274676,
    "ECCENTRICITY": 0.00035345,
    "INCLINATION": 0.746,
    "RA_OF_ASC_NODE": 24.1139,
    "ARG_OF_PERICENTER": 71.0503,
    "MEAN_ANOMALY": 135.2046,
    "EPHEMERIS_TYPE": 0,
    "CLASSIFICATION_TYPE": "U",
    "NORAD_CAT_ID": 54743,
    "ELEMENT_SET_NO": 999,
    "REV_AT_EPOCH": 1304,
    "BSTAR": 0,
    "MEAN_MOTION_DOT": -1e-8,
    "MEAN_MOTION_DDOT": 0
   }
  },
  {
   "norad": 28912,
   "name": "METEOSAT-9 (MSG-2)",
   "intl": "2005-049B",
   "group": "weather",
   "gcat": {
    "class": "C",
    "category": "MET",
    "owner": "EUMET",
    "state": "I-EUM"
   },
   "omm": {
    "OBJECT_NAME": "METEOSAT-9 (MSG-2)",
    "OBJECT_ID": "2005-049B",
    "EPOCH": "2026-06-23T19:45:04.589856",
    "MEAN_MOTION": 1.0027602,
    "ECCENTRICITY": 0.00019699,
    "INCLINATION": 9.3767,
    "RA_OF_ASC_NODE": 54.1047,
    "ARG_OF_PERICENTER": 353.0325,
    "MEAN_ANOMALY": 206.8037,
    "EPHEMERIS_TYPE": 0,
    "CLASSIFICATION_TYPE": "U",
    "NORAD_CAT_ID": 28912,
    "ELEMENT_SET_NO": 999,
    "REV_AT_EPOCH": 706,
    "BSTAR": 0,
    "MEAN_MOTION_DOT": 0.00000123,
    "MEAN_MOTION_DDOT": 0
   }
  },
  {
   "norad": 38771,
   "name": "METOP-B",
   "intl": "2012-049A",
   "group": "weather",
   "gcat": {
    "class": "C",
    "category": "MET",
    "owner": "EUMET",
    "state": "I-EUM"
   },
   "omm": {
    "OBJECT_NAME": "METOP-B",
    "OBJECT_ID": "2012-049A",
    "EPOCH": "2026-06-23T22:43:55.275456",
    "MEAN_MOTION": 14.2144092,
    "ECCENTRICITY": 0.00018032,
    "INCLINATION": 98.6501,
    "RA_OF_ASC_NODE": 226.3115,
    "ARG_OF_PERICENTER": 359.9712,
    "MEAN_ANOMALY": 0.1466,
    "EPHEMERIS_TYPE": 0,
    "CLASSIFICATION_TYPE": "U",
    "NORAD_CAT_ID": 38771,
    "ELEMENT_SET_NO": 999,
    "REV_AT_EPOCH": 71422,
    "BSTAR": 0.00005193149,
    "MEAN_MOTION_DOT": 7e-7,
    "MEAN_MOTION_DDOT": 0
   }
  },
  {
   "norad": 43689,
   "name": "METOP-C",
   "intl": "2018-087A",
   "group": "weather",
   "gcat": {
    "class": "C",
    "category": "MET",
    "owner": "EUMET",
    "state": "I-EUM"
   },
   "omm": {
    "OBJECT_NAME": "METOP-C",
    "OBJECT_ID": "2018-087A",
    "EPOCH": "2026-06-23T21:29:41.670816",
    "MEAN_MOTION": 14.21513654,
    "ECCENTRICITY": 0.00019664,
    "INCLINATION": 98.6641,
    "RA_OF_ASC_NODE": 234.3766,
    "ARG_OF_PERICENTER": 121.0401,
    "MEAN_ANOMALY": 239.097,
    "EPHEMERIS_TYPE": 0,
    "CLASSIFICATION_TYPE": "U",
    "NORAD_CAT_ID": 43689,
    "ELEMENT_SET_NO": 999,
    "REV_AT_EPOCH": 39578,
    "BSTAR": 0.00004977023,
    "MEAN_MOTION_DOT": 6.6e-7,
    "MEAN_MOTION_DDOT": 0
   }
  },
  {
   "norad": 65159,
   "name": "METOP-SGA1",
   "intl": "2025-172A",
   "group": "weather",
   "gcat": {
    "class": "C",
    "category": "MET",
    "owner": "EUMET",
    "state": "I-EUM"
   },
   "omm": {
    "OBJECT_NAME": "METOP-SGA1",
    "OBJECT_ID": "2025-172A",
    "EPOCH": "2026-06-23T21:43:06.148992",
    "MEAN_MOTION": 14.19815962,
    "ECCENTRICITY": 0.00082563,
    "INCLINATION": 98.6643,
    "RA_OF_ASC_NODE": 234.4895,
    "ARG_OF_PERICENTER": 33.5615,
    "MEAN_ANOMALY": 326.6083,
    "EPHEMERIS_TYPE": 0,
    "CLASSIFICATION_TYPE": "U",
    "NORAD_CAT_ID": 65159,
    "ELEMENT_SET_NO": 999,
    "REV_AT_EPOCH": 4474,
    "BSTAR": 0.000029390077,
    "MEAN_MOTION_DOT": 1.9e-7,
    "MEAN_MOTION_DDOT": 0
   }
  },
  {
   "norad": 64899,
   "name": "MICROCARB",
   "intl": "2025-156A",
   "group": "resource",
   "gcat": {
    "class": "C",
    "category": "SCI",
    "owner": "CNES",
    "state": "F"
   },
   "omm": {
    "OBJECT_NAME": "MICROCARB",
    "OBJECT_ID": "2025-156A",
    "EPOCH": "2026-06-23T22:41:42.685152",
    "MEAN_MOTION": 14.72462875,
    "ECCENTRICITY": 0.00151216,
    "INCLINATION": 97.9873,
    "RA_OF_ASC_NODE": 251.9645,
    "ARG_OF_PERICENTER": 245.8477,
    "MEAN_ANOMALY": 114.115,
    "EPHEMERIS_TYPE": 0,
    "CLASSIFICATION_TYPE": "U",
    "NORAD_CAT_ID": 64899,
    "ELEMENT_SET_NO": 999,
    "REV_AT_EPOCH": 4896,
    "BSTAR": 0.000070901121,
    "MEAN_MOTION_DOT": 0.000004,
    "MEAN_MOTION_DDOT": 0
   }
  },
  {
   "norad": 64723,
   "name": "MTG-S1",
   "intl": "2025-143A",
   "group": "weather",
   "gcat": {
    "class": "C",
    "category": "MET",
    "owner": "EUMET",
    "state": "I-EUM"
   },
   "omm": {
    "OBJECT_NAME": "MTG-S1",
    "OBJECT_ID": "2025-143A",
    "EPOCH": "2026-06-23T21:14:29.875200",
    "MEAN_MOTION": 1.0040071,
    "ECCENTRICITY": 0.00006346,
    "INCLINATION": 0.5973,
    "RA_OF_ASC_NODE": 340.4473,
    "ARG_OF_PERICENTER": 290.5343,
    "MEAN_ANOMALY": 318.8145,
    "EPHEMERIS_TYPE": 0,
    "CLASSIFICATION_TYPE": "U",
    "NORAD_CAT_ID": 64723,
    "ELEMENT_SET_NO": 999,
    "REV_AT_EPOCH": 348,
    "BSTAR": 0,
    "MEAN_MOTION_DOT": 1.8e-7,
    "MEAN_MOTION_DDOT": 0
   }
  },
  {
   "norad": 46277,
   "name": "NEMO-HD",
   "intl": "2020-061F",
   "group": "resource",
   "gcat": {
    "class": "A",
    "category": "IMG",
    "owner": "SPSI",
    "state": "SI"
   },
   "omm": {
    "OBJECT_NAME": "NEMO-HD",
    "OBJECT_ID": "2020-061F",
    "EPOCH": "2026-06-23T22:21:54.045792",
    "MEAN_MOTION": 15.4471104,
    "ECCENTRICITY": 0.00020004,
    "INCLINATION": 97.192,
    "RA_OF_ASC_NODE": 236.8169,
    "ARG_OF_PERICENTER": 75.7237,
    "MEAN_ANOMALY": 284.4235,
    "EPHEMERIS_TYPE": 0,
    "CLASSIFICATION_TYPE": "U",
    "NORAD_CAT_ID": 46277,
    "ELEMENT_SET_NO": 999,
    "REV_AT_EPOCH": 32302,
    "BSTAR": 0.00020237424,
    "MEAN_MOTION_DOT": 0.00009362,
    "MEAN_MOTION_DDOT": 0
   }
  },
  {
   "norad": 65053,
   "name": "NISAR",
   "intl": "2025-163A",
   "group": "sar",
   "gcat": {
    "class": "C",
    "category": "IMG-R",
    "owner": "ISRO/JPL",
    "state": "IN"
   },
   "omm": {
    "OBJECT_NAME": "NISAR",
    "OBJECT_ID": "2025-163A",
    "EPOCH": "2026-06-23T23:06:18.085248",
    "MEAN_MOTION": 14.42505131,
    "ECCENTRICITY": 0.00012161,
    "INCLINATION": 98.4057,
    "RA_OF_ASC_NODE": 2.5286,
    "ARG_OF_PERICENTER": 89.8549,
    "MEAN_ANOMALY": 270.278,
    "EPHEMERIS_TYPE": 0,
    "CLASSIFICATION_TYPE": "U",
    "NORAD_CAT_ID": 65053,
    "ELEMENT_SET_NO": 999,
    "REV_AT_EPOCH": 4736,
    "BSTAR": 0.000062389037,
    "MEAN_MOTION_DOT": 0.00000163,
    "MEAN_MOTION_DDOT": 0
   }
  }
 ]
}
